NORAD_CAT_ID,OBJECT_NAME,OBJECT_TYPE,EPOCH,MEAN_MOTION,ECCENTRICITY,INCLINATION,RA_OF_ASC_NODE,ARG_OF_PERICENTER,MEAN_ANOMALY,BSTAR,MEAN_MOTION_DOT,MEAN_MOTION_DDOT,TLE_LINE0,TLE_LINE1,TLE_LINE2,SEMIMAJOR_AXIS,PERIOD,APOGEE,PERIGEE,DECAYED
51738.0,STARLINK-3515,PAYLOAD,2023-09-18 17:15:20,15.08840029,0.0001441,53.2193,52.7152,90.3634,269.7523,0.00010164,1.33e-05,0.0,0 STARLINK-3515,1 51738U 22016AA  23261.71899144  .00001330  00000-0  10164-3 0  9994,2 51738  53.2193  52.7152 0001441  90.3634 269.7523 15.08840029 88351,6917.88,95.438,540.742,538.748,0.0
51738.0,STARLINK-3515,PAYLOAD,2023-09-19 09:09:11,15.08848534,0.0001321,53.2185,49.7399,87.6426,272.4717,0.00022379,3.276e-05,0.0,0 STARLINK-3515,1 51738U 22016AA  23262.38138815  .00003276  00000-0  22379-3 0  9991,2 51738  53.2185  49.7399 0001321  87.6426 272.4717 15.08848534 88452,6917.854,95.437,540.633,538.805,0.0
51738.0,STARLINK-3515,PAYLOAD,2023-09-19 17:06:07,15.08863032,0.0001352,53.2186,48.2537,92.0274,268.0873,0.00076112,0.00011854,0.0,0 STARLINK-3515,1 51738U 22016AA  23262.71258371  .00011854  00000-0  76112-3 0  9993,2 51738  53.2186  48.2537 0001352  92.0274 268.0873 15.08863032 88506,6917.81,95.436,540.61,538.74,0.0
51738.0,STARLINK-3515,PAYLOAD,2023-09-20 10:35:22,15.08842885,0.0001105,53.2181,44.9826,85.2318,274.88,0.00014949,2.092e-05,0.0,0 STARLINK-3515,1 51738U 22016AA  23263.44122781  .00002092  00000-0  14949-3 0  9993,2 51738  53.2181  44.9826 0001105  85.2318 274.8800 15.08842885 88614,6917.872,95.437,540.501,538.972,0.0
51738.0,STARLINK-3515,PAYLOAD,2023-09-20 13:46:08,15.08836164,0.0001112,53.2183,44.3884,102.6433,257.4684,0.00010677,1.412e-05,0.0,0 STARLINK-3515,1 51738U 22016AA  23263.57371095  .00001412  00000-0  10677-3 0  9990,2 51738  53.2183  44.3884 0001112 102.6433 257.4684 15.08836164 87523,6917.892,95.438,540.526,538.988,0.0
51738.0,STARLINK-3515,PAYLOAD,2023-09-20 16:56:55,15.08829262,0.0001091,53.2178,43.7927,86.0874,274.0243,-3.6903e-05,-8.75e-06,0.0,0 STARLINK-3515,1 51738U 22016AA  23263.70619354 -.00000875  00000-0 -36903-4 0  9993,2 51738  53.2178  43.7927 0001091  86.0874 274.0243 15.08829262 88650,6917.913,95.438,540.533,539.023,0.0
51738.0,STARLINK-3515,PAYLOAD,2023-09-21 02:29:14,15.0883131,0.0001138,53.2178,42.0081,71.6142,288.4974,8.945e-05,1.136e-05,0.0,0 STARLINK-3515,1 51738U 22016AA  23264.10363734  .00001136  00000-0  89450-4 0  9990,2 51738  53.2178  42.0081 0001138  71.6142 288.4974 15.08831310 88717,6917.907,95.438,540.559,538.985,0.0
51738.0,STARLINK-3515,PAYLOAD,2023-09-21 13:36:56,15.08843324,0.0001139,53.2177,39.9257,71.3125,288.7991,0.00035559,5.376e-05,0.0,0 STARLINK-3515,1 51738U 22016AA  23264.56731585  .00005376  00000-0  35559-3 0  9993,2 51738  53.2177  39.9257 0001139  71.3125 288.7991 15.08843324 87679,6917.87,95.437,540.523,538.947,0.0
51738.0,STARLINK-3515,PAYLOAD,2023-09-21 15:12:19,15.08846956,0.0001169,53.2175,39.6266,73.4796,286.6324,0.00043625,6.663e-05,0.0,0 STARLINK-3515,1 51738U 22016AA  23264.63355489  .00006663  00000-0  43625-3 0  9999,2 51738  53.2175  39.6266 0001169  73.4796 286.6324 15.08846956 88799,6917.859,95.437,540.533,538.915,0.0
51738.0,STARLINK-3515,PAYLOAD,2023-09-22 02:20:00,15.08842108,8e-06,53.2166,37.5505,68.6829,291.4172,-4.1917e-06,-3.54e-06,0.0,0 STARLINK-3515,1 51738U 22016AA  23265.09723149 -.00000354  00000-0 -41917-5 0  9999,2 51738  53.2166  37.5505 0000080  68.6829 291.4172 15.08842108 88864,6917.874,95.437,539.794,539.684,0.0
51738.0,STARLINK-3515,PAYLOAD,2023-09-22 13:27:42,15.0885522,9.74e-05,53.2176,35.4654,73.9656,286.1443,0.00051866,7.98e-05,0.0,0 STARLINK-3515,1 51738U 22016AA  23265.56091206  .00007980  00000-0  51866-3 0  9995,2 51738  53.2176  35.4654 0000974  73.9656 286.1443 15.08855220 87822,6917.834,95.437,540.373,539.025,0.0
51738.0,STARLINK-3515,PAYLOAD,2023-09-22 15:03:05,15.0886211,0.000121,53.2174,35.1681,75.2263,284.8863,0.00081497,0.00012714,0.0,0 STARLINK-3515,1 51738U 22016AA  23265.62715063  .00012714  00000-0  81497-3 0  9990,2 51738  53.2174  35.1681 0001210  75.2263 284.8863 15.08862110 88941,6917.813,95.436,540.515,538.841,0.0
51738.0,STARLINK-3515,PAYLOAD,2023-09-23 02:10:47,15.08860371,0.0001634,53.2177,33.0883,73.3906,286.7266,0.00090425,0.0001414,0.0,0 STARLINK-3515,1 51738U 22016AA  23266.09083088  .00014140  00000-0  90425-3 0  9993,2 51738  53.2177  33.0883 0001634  73.3906 286.7266 15.08860371 89012,6917.818,95.436,540.813,538.553,0.0
51738.0,STARLINK-3515,PAYLOAD,2023-09-23 11:43:06,15.08850398,0.0001522,53.2182,31.3004,107.4443,252.6715,0.00072617,0.00011291,0.0,0 STARLINK-3515,1 51738U 22016AA  23266.48826991  .00011291  00000-0  72617-3 0  9991,2 51738  53.2182  31.3004 0001522 107.4443 252.6715 15.08850398 89070,6917.849,95.437,540.767,538.661,0.0
51738.0,STARLINK-3515,PAYLOAD,2023-09-23 13:18:29,15.08851625,0.0001581,53.2184,31.0031,115.7134,244.4021,0.000575,8.878e-05,0.0,0 STARLINK-3515,1 51738U 22016AA  23266.55450945  .00008878  00000-0  57500-3 0  9992,2 51738  53.2184  31.0031 0001581 115.7134 244.4021 15.08851625 87973,6917.845,95.437,540.804,538.616,0.0
51738.0,STARLINK-3515,PAYLOAD,2023-09-23 14:53:52,15.08850119,0.0001411,53.2192,30.7064,110.9165,249.1979,0.00039556,6.015e-05,0.0,0 STARLINK-3515,1 51738U 22016AA  23266.62074939  .00006015  00000-0  39556-3 0  9997,2 51738  53.2192  30.7064 0001411 110.9165 249.1979 15.08850119 89093,6917.849,95.437,540.691,538.738,0.0
51738.0,STARLINK-3515,PAYLOAD,2023-09-24 08:23:07,15.08842496,0.0001408,53.2187,27.4394,76.305,283.8099,0.00024781,3.658e-05,0.0,0 STARLINK-3515,1 51738U 22016AA  23267.34939337  .00003658  00000-0  24781-3 0  9993,2 51738  53.2187  27.4394 0001408  76.3050 283.8099 15.08842496 89200,6917.873,95.437,540.712,538.764,0.0
51738.0,STARLINK-3515,PAYLOAD,2023-09-24 13:09:16,15.08844902,0.0001476,53.2194,26.5471,84.2681,275.848,0.00018463,2.652e-05,0.0,0 STARLINK-3515,1 51738U 22016AA  23267.54811229  .00002652  00000-0  18463-3 0  9997,2 51738  53.2194  26.5471 0001476  84.2681 275.8480 15.08844902 88126,6917.865,95.437,540.751,538.709,0.0
51738.0,STARLINK-3515,PAYLOAD,2023-09-24 19:30:48,15.08856876,0.0001399,53.2188,25.3551,89.8252,270.29,0.00039848,6.062e-05,0.0,0 STARLINK-3515,1 51738U 22016AA  23267.81306667  .00006062  00000-0  39848-3 0  9991,2 51738  53.2188  25.3551 0001399  89.8252 270.2900 15.08856876 89270,6917.829,95.436,540.662,538.726,0.0
51738.0,STARLINK-3515,PAYLOAD,2023-09-25 14:35:27,15.08848926,0.0001455,53.2194,21.7912,90.4666,269.6493,0.00030961,4.644e-05,0.0,0 STARLINK-3515,1 51738U 22016AA  23268.60795208  .00004644  00000-0  30961-3 0  9993,2 51738  53.2194  21.7912 0001455  90.4666 269.6493 15.08848926 88284,6917.853,95.437,540.725,538.712,0.0
51738.0,STARLINK-3515,PAYLOAD,2023-09-25 19:21:35,15.08863902,0.0001459,53.2192,20.8954,91.4754,268.6405,0.00066092,0.00010253,0.0,0 STARLINK-3515,1 51738U 22016AA  23268.80666662  .00010253  00000-0  66092-3 0  9993,2 51738  53.2192  20.8954 0001459  91.4754 268.6405 15.08863902 89421,6917.807,95.436,540.682,538.663,0.0
51738.0,STARLINK-3515,PAYLOAD,2023-09-26 12:50:51,15.0882936,0.0001572,53.2192,17.6236,96.9783,263.1388,0.00053691,8.265e-05,0.0,0 STARLINK-3515,1 51738U 22016AA  23269.53531934  .00008265  00000-0  53691-3 0  9998,2 51738  53.2192  17.6236 0001572  96.9783 263.1388 15.08829360 89538,6917.913,95.438,540.865,538.69,0.0
51738.0,STARLINK-3515,PAYLOAD,2023-09-26 14:26:14,15.0883471,0.0001494,53.2193,17.327,91.1433,268.973,0.00085155,0.00013288,0.0,0 STARLINK-3515,1 51738U 22016AA  23269.60155995  .00013288  00000-0  85155-3 0  9996,2 51738  53.2193  17.3270 0001494  91.1433 268.9730 15.08834710 88433,6917.897,95.438,540.795,538.728,0.0
51738.0,STARLINK-3515,PAYLOAD,2023-09-26 17:37:00,15.0884659,0.0001543,53.2191,16.7318,97.9045,262.2122,0.0014376,0.0002267,0.0,0 STARLINK-3515,1 51738U 22016AA  23269.73403919  .00022670  00000-0  14376-2 0  9993,2 51738  53.2191  16.7318 0001543  97.9045 262.2122 15.08846590 89561,6917.86,95.437,540.793,538.658,0.0
51738.0,STARLINK-3515,PAYLOAD,2023-09-26 23:58:33,15.08842007,0.0001663,53.2186,15.5378,64.0857,296.0306,0.0010659,0.00016717,0.0,0 STARLINK-3515,1 51738U 22016AA  23269.99900232  .00016717  00000-0  10659-2 0  9996,2 51738  53.2186  15.5378 0001663  64.0857 296.0306 15.08842007 89600,6917.874,95.437,540.89,538.589,0.0
51738.0,STARLINK-3515,PAYLOAD,2023-09-27 07:55:29,15.08836793,0.0001644,53.2189,14.0564,89.8251,270.293,0.0011847,0.00018615,0.0,0 STARLINK-3515,1 51738U 22016AA  23270.33020320  .00018615  00000-0  11847-2 0  9996,2 51738  53.2189  14.0564 0001644  89.8251 270.2930 15.08836793 89653,6917.89,95.438,540.892,538.618,0.0
51738.0,STARLINK-3515,PAYLOAD,2023-09-27 12:41:39,15.08846961,0.0001498,53.219,13.1654,86.9037,273.2127,0.0012354,0.00019432,0.0,0 STARLINK-3515,1 51738U 22016AA  23270.52892366  .00019432  00000-0  12354-2 0  9996,2 51738  53.2190  13.1654 0001498  86.9037 273.2127 15.08846961 88571,6917.859,95.437,540.76,538.688,0.0
51738.0,STARLINK-3515,PAYLOAD,2023-09-27 14:17:02,15.08853069,0.0001387,53.2185,12.8688,85.0137,275.1013,0.0015454,0.00024401,0.0,0 STARLINK-3515,1 51738U 22016AA  23270.59516258  .00024401  00000-0  15454-2 0  9992,2 51738  53.2185  12.8688 0001387  85.0137 275.1013 15.08853069 89692,6917.84,95.437,540.665,538.746,0.0
51738.0,STARLINK-3515,PAYLOAD,2023-09-28 12:32:26,15.08847434,0.0001436,53.2178,8.7069,77.9553,282.16,0.00070953,0.00011024,0.0,0 STARLINK-3515,1 51738U 22016AA  23271.52252356  .00011024  00000-0  70953-3 0  9995,2 51738  53.2178   8.7069 0001436  77.9553 282.1600 15.08847434 89833,6917.858,95.437,540.716,538.729,0.0
51738.0,STARLINK-3515,PAYLOAD,2023-09-28 14:07:49,15.08850504,0.0001454,53.2179,8.409,79.4463,280.6693,0.00054935,8.468e-05,0.0,0 STARLINK-3515,1 51738U 22016AA  23271.58876260  .00008468  00000-0  54935-3 0  9997,2 51738  53.2179   8.4090 0001454  79.4463 280.6693 15.08850504 88737,6917.848,95.437,540.719,538.707,0.0
